[
    {
        "Altitude(m)": 604983.053085373,
        "Argument of Periapsis(deg)": 0.0,
        "Eccentricity": 0.0,
        "Inclination(deg)": 60.0,
        "Latitude(deg)": -0.09274487664593851,
        "Longitude(deg)": -89.91608363751602,
        "Mean Anomaly(deg)": -180.00000000000003,
        "RAAN(deg)": 190.0,
        "Satellite Name": "Test1 847",
        "Satellite Number": 847,
        "Semi-Major Axis(m)": 6980739.136638005,
        "Time(s)": 0
    },
    {
        "Altitude(m)": 605055.3332236758,
        "Argument of Periapsis(deg)": 0.00010418945913296404,
        "Eccentricity": 0.0,
        "Inclination(deg)": 60.0,
        "Latitude(deg)": -0.6331548622873645,
        "Longitude(deg)": -89.64795894560243,
        "Mean Anomaly(deg)": -179.37989385453818,
        "RAAN(deg)": 189.99957995086027,
        "Satellite Name": "Test1 847",
        "Satellite Number": 847,
        "Semi-Major Axis(m)": 6980739.136638005,
        "Time(s)": 10
    }
]